TITAN 4B R/B            
1 26474U 00047B   25300.46318390  .00006193  00000+0  39829-3 0  9990
2 26474  67.9909  54.7728 0043802 197.6026 162.3608 15.08258043372819
ENVISAT                 
1 27386U 02009A   25300.46646799  .00000240  00000+0  91533-4 0  9998
2 27386  98.3520 252.3990 0001338  85.7160  24.2984 14.38973335240019
IDEFIX & ARIANE 42P R/B 
1 27422U 02021B   25300.43280740  .00000486  00000+0  20144-3 0  9991
2 27422  98.5711 235.7430 0010961 215.9501 144.0945 14.30899250224965
AQUA                    
1 27424U 02022A   25300.49333860  .00001679  00000+0  34731-3 0  9994
2 27424  98.3964 260.6439 0001456  52.8654  58.2120 14.61641598249273
CZ-4B R/B               
1 27432U 02024C   25300.37518693  .00000071  00000+0  59677-4 0  9993
2 27432  98.9070 349.2921 0050810  42.5058 328.4227 14.14513937210392
MIDORI II (ADEOS-II)    
1 27597U 02056A   25300.50892655  .00000454  00000+0  19682-3 0  9994
2 27597  98.7556 253.2418 0001930  56.3536 303.7829 14.29157417191271
H-2A R/B                
1 27601U 02056E   25300.48785786  .00000460  00000+0  17616-3 0  9995
2 27601  98.2991 261.1047 0069824 197.6384 273.4970 14.33627200195021
CZ-4B R/B               
1 28059U 03049C   25300.51660442  .00000690  00000+0  17042-3 0  9999
2 28059  98.6755 285.3424 0047116 278.4649  81.1208 14.54843028167231
CZ-2C R/B               
1 28222U 04012C   25300.48926005  .00033913  00000+0  56916-3 0  9995
2 28222  97.7498 349.4222 0020984  80.8911 279.4713 15.51483088183545
SL-16 R/B               
1 28353U 04021B   25300.30409093 -.00000268  00000+0 -11448-3 0  9994
2 28353  70.9989 152.4116 0007344 251.5040 108.5284 14.14572134103970
CZ-4B R/B               
1 28415U 04035C   25300.03000447  .00009810  00000+0  37375-3 0  9995
2 28415  97.3671 331.0169 0035972  82.7487 277.7838 15.26300959159502
CZ-2C R/B               
1 28480U 04046B   25300.39824919  .00000242  00000+0  10518-3 0  9996
2 28480  98.1942 218.6675 0139278 188.5534 171.3273 14.26910539 89490
