CCSDS_OMM_VERS = 2.0
CREATION_DATE  = 
ORIGINATOR     = 

OBJECT_NAME    = TITAN 4B R/B
OBJECT_ID      = 2000-047B
CENTER_NAME    = EARTH
REF_FRAME      = TEME
TIME_SYSTEM    = UTC
MEAN_ELEMENT_THEORY = SGP/SGP4

EPOCH          = 2025-10-27T11:06:59.088960
MEAN_MOTION    = 15.08258043
ECCENTRICITY   = .0043802
INCLINATION    = 67.9909
RA_OF_ASC_NODE = 54.7728
ARG_OF_PERICENTER = 197.6026
MEAN_ANOMALY   = 162.3608

EPHEMERIS_TYPE = 0
CLASSIFICATION_TYPE = U
NORAD_CAT_ID   = 26474
ELEMENT_SET_NO = 999
REV_AT_EPOCH   = 37281
BSTAR          = .39829E-3
MEAN_MOTION_DOT = .6193E-4
MEAN_MOTION_DDOT = 0

CCSDS_OMM_VERS = 2.0
CREATION_DATE  = 
ORIGINATOR     = 

OBJECT_NAME    = ENVISAT
OBJECT_ID      = 2002-009A
CENTER_NAME    = EARTH
REF_FRAME      = TEME
TIME_SYSTEM    = UTC
MEAN_ELEMENT_THEORY = SGP/SGP4

EPOCH          = 2025-10-27T11:11:42.834336
MEAN_MOTION    = 14.38973335
ECCENTRICITY   = .0001338
INCLINATION    = 98.3520
RA_OF_ASC_NODE = 252.3990
ARG_OF_PERICENTER = 85.7160
MEAN_ANOMALY   = 24.2984

EPHEMERIS_TYPE = 0
CLASSIFICATION_TYPE = U
NORAD_CAT_ID   = 27386
ELEMENT_SET_NO = 999
REV_AT_EPOCH   = 24001
BSTAR          = .91533E-4
MEAN_MOTION_DOT = .24E-5
MEAN_MOTION_DDOT = 0

CCSDS_OMM_VERS = 2.0
CREATION_DATE  = 
ORIGINATOR     = 

OBJECT_NAME    = IDEFIX & ARIANE 42P R/B
OBJECT_ID      = 2002-021B
CENTER_NAME    = EARTH
REF_FRAME      = TEME
TIME_SYSTEM    = UTC
MEAN_ELEMENT_THEORY = SGP/SGP4

EPOCH          = 2025-10-27T10:23:14.559360
MEAN_MOTION    = 14.30899250
ECCENTRICITY   = .0010961
INCLINATION    = 98.5711
RA_OF_ASC_NODE = 235.7430
ARG_OF_PERICENTER = 215.9501
MEAN_ANOMALY   = 144.0945

EPHEMERIS_TYPE = 0
CLASSIFICATION_TYPE = U
NORAD_CAT_ID   = 27422
ELEMENT_SET_NO = 999
REV_AT_EPOCH   = 22496
BSTAR          = .20144E-3
MEAN_MOTION_DOT = .486E-5
MEAN_MOTION_DDOT = 0

CCSDS_OMM_VERS = 2.0
CREATION_DATE  = 
ORIGINATOR     = 

OBJECT_NAME    = AQUA
OBJECT_ID      = 2002-022A
CENTER_NAME    = EARTH
REF_FRAME      = TEME
TIME_SYSTEM    = UTC
MEAN_ELEMENT_THEORY = SGP/SGP4

EPOCH          = 2025-10-27T11:50:24.455040
MEAN_MOTION    = 14.61641598
ECCENTRICITY   = .0001456
INCLINATION    = 98.3964
RA_OF_ASC_NODE = 260.6439
ARG_OF_PERICENTER = 52.8654
MEAN_ANOMALY   = 58.2120

EPHEMERIS_TYPE = 0
CLASSIFICATION_TYPE = U
NORAD_CAT_ID   = 27424
ELEMENT_SET_NO = 999
REV_AT_EPOCH   = 24927
BSTAR          = .34731E-3
MEAN_MOTION_DOT = .1679E-4
MEAN_MOTION_DDOT = 0

CCSDS_OMM_VERS = 2.0
CREATION_DATE  = 
ORIGINATOR     = 

OBJECT_NAME    = CZ-4B R/B
OBJECT_ID      = 2002-024C
CENTER_NAME    = EARTH
REF_FRAME      = TEME
TIME_SYSTEM    = UTC
MEAN_ELEMENT_THEORY = SGP/SGP4

EPOCH          = 2025-10-27T09:00:16.150752
MEAN_MOTION    = 14.14513937
ECCENTRICITY   = .005081
INCLINATION    = 98.9070
RA_OF_ASC_NODE = 349.2921
ARG_OF_PERICENTER = 42.5058
MEAN_ANOMALY   = 328.4227

EPHEMERIS_TYPE = 0
CLASSIFICATION_TYPE = U
NORAD_CAT_ID   = 27432
ELEMENT_SET_NO = 999
REV_AT_EPOCH   = 21039
BSTAR          = .59677E-4
MEAN_MOTION_DOT = .71E-6
MEAN_MOTION_DDOT = 0

CCSDS_OMM_VERS = 2.0
CREATION_DATE  = 
ORIGINATOR     = 

OBJECT_NAME    = MIDORI II (ADEOS-II)
OBJECT_ID      = 2002-056A
CENTER_NAME    = EARTH
REF_FRAME      = TEME
TIME_SYSTEM    = UTC
MEAN_ELEMENT_THEORY = SGP/SGP4

EPOCH          = 2025-10-27T12:12:51.253920
MEAN_MOTION    = 14.29157417
ECCENTRICITY   = .000193
INCLINATION    = 98.7556
RA_OF_ASC_NODE = 253.2418
ARG_OF_PERICENTER = 56.3536
MEAN_ANOMALY   = 303.7829

EPHEMERIS_TYPE = 0
CLASSIFICATION_TYPE = U
NORAD_CAT_ID   = 27597
ELEMENT_SET_NO = 999
REV_AT_EPOCH   = 19127
BSTAR          = .19682E-3
MEAN_MOTION_DOT = .454E-5
MEAN_MOTION_DDOT = 0

CCSDS_OMM_VERS = 2.0
CREATION_DATE  = 
ORIGINATOR     = 

OBJECT_NAME    = H-2A R/B
OBJECT_ID      = 2002-056E
CENTER_NAME    = EARTH
REF_FRAME      = TEME
TIME_SYSTEM    = UTC
MEAN_ELEMENT_THEORY = SGP/SGP4

EPOCH          = 2025-10-27T11:42:30.919104
MEAN_MOTION    = 14.33627200
ECCENTRICITY   = .0069824
INCLINATION    = 98.2991
RA_OF_ASC_NODE = 261.1047
ARG_OF_PERICENTER = 197.6384
MEAN_ANOMALY   = 273.4970

EPHEMERIS_TYPE = 0
CLASSIFICATION_TYPE = U
NORAD_CAT_ID   = 27601
ELEMENT_SET_NO = 999
REV_AT_EPOCH   = 19502
BSTAR          = .17616E-3
MEAN_MOTION_DOT = .46E-5
MEAN_MOTION_DDOT = 0

CCSDS_OMM_VERS = 2.0
CREATION_DATE  = 
ORIGINATOR     = 

OBJECT_NAME    = CZ-4B R/B
OBJECT_ID      = 2003-049C
CENTER_NAME    = EARTH
REF_FRAME      = TEME
TIME_SYSTEM    = UTC
MEAN_ELEMENT_THEORY = SGP/SGP4

EPOCH          = 2025-10-27T12:23:54.621888
MEAN_MOTION    = 14.54843028
ECCENTRICITY   = .0047116
INCLINATION    = 98.6755
RA_OF_ASC_NODE = 285.3424
ARG_OF_PERICENTER = 278.4649
MEAN_ANOMALY   = 81.1208

EPHEMERIS_TYPE = 0
CLASSIFICATION_TYPE = U
NORAD_CAT_ID   = 28059
ELEMENT_SET_NO = 999
REV_AT_EPOCH   = 16723
BSTAR          = .17042E-3
MEAN_MOTION_DOT = .69E-5
MEAN_MOTION_DDOT = 0

CCSDS_OMM_VERS = 2.0
CREATION_DATE  = 
ORIGINATOR     = 

OBJECT_NAME    = CZ-2C R/B
OBJECT_ID      = 2004-012C
CENTER_NAME    = EARTH
REF_FRAME      = TEME
TIME_SYSTEM    = UTC
MEAN_ELEMENT_THEORY = SGP/SGP4

EPOCH          = 2025-10-27T11:44:32.068320
MEAN_MOTION    = 15.51483088
ECCENTRICITY   = .0020984
INCLINATION    = 97.7498
RA_OF_ASC_NODE = 349.4222
ARG_OF_PERICENTER = 80.8911
MEAN_ANOMALY   = 279.4713

EPHEMERIS_TYPE = 0
CLASSIFICATION_TYPE = U
NORAD_CAT_ID   = 28222
ELEMENT_SET_NO = 999
REV_AT_EPOCH   = 18354
BSTAR          = .56916E-3
MEAN_MOTION_DOT = .33913E-3
MEAN_MOTION_DDOT = 0

CCSDS_OMM_VERS = 2.0
CREATION_DATE  = 
ORIGINATOR     = 

OBJECT_NAME    = SL-16 R/B
OBJECT_ID      = 2004-021B
CENTER_NAME    = EARTH
REF_FRAME      = TEME
TIME_SYSTEM    = UTC
MEAN_ELEMENT_THEORY = SGP/SGP4

EPOCH          = 2025-10-27T07:17:53.456352
MEAN_MOTION    = 14.14572134
ECCENTRICITY   = .0007344
INCLINATION    = 70.9989
RA_OF_ASC_NODE = 152.4116
ARG_OF_PERICENTER = 251.5040
MEAN_ANOMALY   = 108.5284

EPHEMERIS_TYPE = 0
CLASSIFICATION_TYPE = U
NORAD_CAT_ID   = 28353
ELEMENT_SET_NO = 999
REV_AT_EPOCH   = 10397
BSTAR          = -.11448E-3
MEAN_MOTION_DOT = -.268E-5
MEAN_MOTION_DDOT = 0

CCSDS_OMM_VERS = 2.0
CREATION_DATE  = 
ORIGINATOR     = 

OBJECT_NAME    = CZ-4B R/B
OBJECT_ID      = 2004-035C
CENTER_NAME    = EARTH
REF_FRAME      = TEME
TIME_SYSTEM    = UTC
MEAN_ELEMENT_THEORY = SGP/SGP4

EPOCH          = 2025-10-27T00:43:12.386208
MEAN_MOTION    = 15.26300959
ECCENTRICITY   = .00359724
INCLINATION    = 97.3671
RA_OF_ASC_NODE = 331.0169
ARG_OF_PERICENTER = 82.7487
MEAN_ANOMALY   = 277.7838

EPHEMERIS_TYPE = 0
CLASSIFICATION_TYPE = U
NORAD_CAT_ID   = 28415
ELEMENT_SET_NO = 999
REV_AT_EPOCH   = 15950
BSTAR          = .37374511E-3
MEAN_MOTION_DOT = .981E-4
MEAN_MOTION_DDOT = 0

CCSDS_OMM_VERS = 2.0
CREATION_DATE  = 
ORIGINATOR     = 

OBJECT_NAME    = CZ-2C R/B
OBJECT_ID      = 2004-046B
CENTER_NAME    = EARTH
REF_FRAME      = TEME
TIME_SYSTEM    = UTC
MEAN_ELEMENT_THEORY = SGP/SGP4

EPOCH          = 2025-10-27T09:33:28.730016
MEAN_MOTION    = 14.26910539
ECCENTRICITY   = .0139278
INCLINATION    = 98.1942
RA_OF_ASC_NODE = 218.6675
ARG_OF_PERICENTER = 188.5534
MEAN_ANOMALY   = 171.3273

EPHEMERIS_TYPE = 0
CLASSIFICATION_TYPE = U
NORAD_CAT_ID   = 28480
ELEMENT_SET_NO = 999
REV_AT_EPOCH   = 8949
BSTAR          = .10518E-3
MEAN_MOTION_DOT = .242E-5
MEAN_MOTION_DDOT = 0

